#,Place_Name,State,City,Address,Lunch-Time - IN,Lunch-Time - Out,Dinner Time - IN,Dinner Time - Out,Capacity,Contact,Lat,Long,Maps Url
1,Annapurna Canteen - KUSHAIGUDA ,Telangana,Hyderabad,KUSHAIGUDA  Hyderabad Telangana,11:00,15:00,19:00,22:00, 100 ,040-21111111 ,17.48031667,78.57483333,"https://www.google.com/maps/search/?api=1&query=17.4803166666667,78.5748333333333"
2,Annapurna Canteen - CHERLAPALLI ,Telangana,Hyderabad,CHERLAPALLI  Hyderabad Telangana,11:00,15:00,19:00,22:00, 100 ,040-21111111 ,17.47105,78.59698333,"https://www.google.com/maps/search/?api=1&query=17.47105,78.5969833333333"
3,Annapurna Canteen - KAPRA - MALLAPUR ,Telangana,Hyderabad,KAPRA - MALLAPUR  Hyderabad Telangana,No Info,No Info,No Info,No Info, 100 ,040-21111111 ,17.4574,78.56493333,"https://www.google.com/maps/search/?api=1&query=17.4574,78.5649333333333"
4,Annapurna Canteen - RAMANTHAPUR ,Telangana,Hyderabad,RAMANTHAPUR  Hyderabad Telangana,11:00,15:00,19:00,22:00, 100 ,040-21111111 ,17.39965,78.53738333,"https://www.google.com/maps/search/?api=1&query=17.39965,78.5373833333333"
5,Annapurna Canteen - UPPAL CHOWRASTHA ,Telangana,Hyderabad,UPPAL CHOWRASTHA  Hyderabad Telangana,11:00,15:00,19:00,22:00, 100 ,040-21111111 ,17.40201667,78.5605,"https://www.google.com/maps/search/?api=1&query=17.4020166666667,78.5605"
6,Annapurna Canteen - L B NAGAR ,Telangana,Hyderabad,L B NAGAR  Hyderabad Telangana,11:00,15:00,19:00,22:00, 100 ,040-21111111 ,17.34755,78.55005,"https://www.google.com/maps/search/?api=1&query=17.34755,78.55005"
7,Annapurna Canteen - MEHABBOB GUNJ ,Telangana,Hyderabad,MEHABBOB GUNJ  Hyderabad Telangana,11:00,15:00,19:00,22:00, 100 ,040-21111111 ,17.37348333,78.50325,"https://www.google.com/maps/search/?api=1&query=17.3734833333333,78.50325"
8,Annapurna Canteen - MALAKPET AREA HOSPITAL ,Telangana,Hyderabad,MALAKPET AREA HOSPITAL  Hyderabad Telangana,11:00,15:00,19:00,22:00, 100 ,040-21111111 ,17.37275,78.49838333,"https://www.google.com/maps/search/?api=1&query=17.37275,78.4983833333333"
9,Annapurna Canteen - AZAMPURA CHAMAN (UNANI HOSPITAL) ,Telangana,Hyderabad,AZAMPURA CHAMAN (UNANI HOSPITAL)  Hyderabad Telangana,11:00,15:00,19:00,22:00, 100 ,040-21111111 ,17.36045,78.4741,"https://www.google.com/maps/search/?api=1&query=17.36045,78.4741"
10,Annapurna Canteen - DABBIRPURA DARWAZA ,Telangana,Hyderabad,DABBIRPURA DARWAZA  Hyderabad Telangana,11:00,15:00,19:00,22:00, 100 ,040-21111111 ,17.36795,78.48513333,"https://www.google.com/maps/search/?api=1&query=17.36795,78.4851333333333"
11,Annapurna Canteen - MIR ALAM MANDI ,Telangana,Hyderabad,MIR ALAM MANDI  Hyderabad Telangana,11:00,15:00,19:00,22:00, 100 ,040-21111111 ,17.36556667,78.47873333,"https://www.google.com/maps/search/?api=1&query=17.3655666666667,78.4787333333333"
12,Annapurna Canteen - ASRA HOSPITAL ,Telangana,Hyderabad,ASRA HOSPITAL  Hyderabad Telangana,11:00,15:00,19:00,22:00, 100 ,040-21111111 ,17.35623333,78.47368333,"https://www.google.com/maps/search/?api=1&query=17.3562333333333,78.4736833333333"
13,Annapurna Canteen - BADA BAZAR YAKUTHPURA ,Telangana,Hyderabad,BADA BAZAR YAKUTHPURA  Hyderabad Telangana,11:00,15:00,19:00,22:00, 100 ,040-21111111 ,17.36005,78.49213333,"https://www.google.com/maps/search/?api=1&query=17.36005,78.4921333333333"
14,Annapurna Canteen - MADANNAPET MANDI ,Telangana,Hyderabad,MADANNAPET MANDI  Hyderabad Telangana,11:00,15:00,19:00,22:00, 100 ,040-21111111 ,17.35825,78.50503333,"https://www.google.com/maps/search/?api=1&query=17.35825,78.5050333333333"
15,Annapurna Canteen - CHARMINAR ,Telangana,Hyderabad,CHARMINAR  Hyderabad Telangana,11:00,15:00,19:00,22:00, 100 ,040-21111111 ,17.3593,78.47411667,"https://www.google.com/maps/search/?api=1&query=17.3593,78.4741166666667"
16,Annapurna Canteen - PETLABURZ HOSPITAL ,Telangana,Hyderabad,PETLABURZ HOSPITAL  Hyderabad Telangana,No Info,No Info,No Info,No Info, 100 ,040-21111111 ,17.36808333,78.468,"https://www.google.com/maps/search/?api=1&query=17.3680833333333,78.468"
17,Annapurna Canteen - BEGUMBAZAR ,Telangana,Hyderabad,BEGUMBAZAR  Hyderabad Telangana,11:00,15:00,19:00,22:00, 100 ,040-21111111 ,17.37091667,78.4691,"https://www.google.com/maps/search/?api=1&query=17.3709166666667,78.4691"
18,Annapurna Canteen - STATE CENTRAL LIBRARY ,Telangana,Hyderabad,STATE CENTRAL LIBRARY  Hyderabad Telangana,11:00,15:00,19:00,22:00, 100 ,040-21111111 ,17.3756,78.48046667,"https://www.google.com/maps/search/?api=1&query=17.3756,78.4804666666667"
19,Annapurna Canteen - OSMANIA GENERAL HOSPITAL ,Telangana,Hyderabad,OSMANIA GENERAL HOSPITAL  Hyderabad Telangana,11:00,15:00,19:00,22:00, 100 ,040-21111111 ,17.37448333,78.4754,"https://www.google.com/maps/search/?api=1&query=17.3744833333333,78.4754"
20,Annapurna Canteen - PURANAPOOL ,Telangana,Hyderabad,PURANAPOOL  Hyderabad Telangana,11:00,15:00,19:00,22:00, 100 ,040-21111111 ,17.36863333,78.45805,"https://www.google.com/maps/search/?api=1&query=17.3686333333333,78.45805"
21,Annapurna Canteen - TADBUND ,Telangana,Hyderabad,TADBUND  Hyderabad Telangana,11:00,15:00,19:00,22:00, 100 ,040-21111111 ,17.3452,78.45093333,"https://www.google.com/maps/search/?api=1&query=17.3452,78.4509333333333"
22,Annapurna Canteen - KATEDAN ,Telangana,Hyderabad,KATEDAN  Hyderabad Telangana,11:00,15:00,19:00,22:00, 100 ,040-21111111 ,17.3132,78.44135,"https://www.google.com/maps/search/?api=1&query=17.3132,78.44135"
23,Annapurna Canteen - LANGAR HOUSE ,Telangana,Hyderabad,LANGAR HOUSE  Hyderabad Telangana,11:00,15:00,19:00,22:00, 100 ,040-21111111 ,17.37673333,78.42011667,"https://www.google.com/maps/search/?api=1&query=17.3767333333333,78.4201166666667"
24,Annapurna Canteen - MEHDIPATANAM ,Telangana,Hyderabad,MEHDIPATANAM  Hyderabad Telangana,No Info,No Info,No Info,No Info, 100 ,040-21111111 ,17.39508333,78.4413,"https://www.google.com/maps/search/?api=1&query=17.3950833333333,78.4413"
25,Annapurna Canteen - GUDIMALKAPUR ,Telangana,Hyderabad,GUDIMALKAPUR  Hyderabad Telangana,11:00,15:00,19:00,22:00, 100 ,040-21111111 ,17.38458333,78.43391667,"https://www.google.com/maps/search/?api=1&query=17.3845833333333,78.4339166666667"
26,Annapurna Canteen - LAKDIKAPOOL POLICE STATION ,Telangana,Hyderabad,LAKDIKAPOOL POLICE STATION  Hyderabad Telangana,11:00,15:00,19:00,22:00, 100 ,040-21111111 ,17.40251667,78.4622,"https://www.google.com/maps/search/?api=1&query=17.4025166666667,78.4622"
27,Annapurna Canteen - CHINTALBASTI ,Telangana,Hyderabad,CHINTALBASTI  Hyderabad Telangana,11:00,15:00,19:00,22:00, 100 ,040-21111111 ,17.40861667,78.45495,"https://www.google.com/maps/search/?api=1&query=17.4086166666667,78.45495"
28,Annapurna Canteen - NILOUFER HOSPITAL ,Telangana,Hyderabad,NILOUFER HOSPITAL  Hyderabad Telangana,11:00,15:00,19:00,22:00, 100 ,040-21111111 ,17.39946667,78.46001667,"https://www.google.com/maps/search/?api=1&query=17.3994666666667,78.4600166666667"
29,"Annapurna Canteen - NAMPALLY HOSPITAL, BAZAARGHAT ",Telangana,Hyderabad,"NAMPALLY HOSPITAL, BAZAARGHAT  Hyderabad Telangana",11:00,15:00,19:00,22:00, 100 ,040-21111111 ,17.39411667,78.46251667,"https://www.google.com/maps/search/?api=1&query=17.3941166666667,78.4625166666667"
30,Annapurna Canteen - TELUGU SANKSHEMA BHAVAN(MASABTANK) ,Telangana,Hyderabad,TELUGU SANKSHEMA BHAVAN(MASABTANK)  Hyderabad Telangana,11:00,15:00,19:00,22:00, 100 ,040-21111111 ,17.40278333,78.45103333,"https://www.google.com/maps/search/?api=1&query=17.4027833333333,78.4510333333333"
31,Annapurna Canteen - NAMPALLY SARAI ,Telangana,Hyderabad,NAMPALLY SARAI  Hyderabad Telangana,11:00,15:00,19:00,22:00, 100 ,040-21111111 ,17.39198333,78.46966667,"https://www.google.com/maps/search/?api=1&query=17.3919833333333,78.4696666666667"
32,Annapurna Canteen - LIBERTY CIRCLE ,Telangana,Hyderabad,LIBERTY CIRCLE  Hyderabad Telangana,11:00,15:00,19:00,22:00, 100 ,040-21111111 ,17.40733333,78.47663333,"https://www.google.com/maps/search/?api=1&query=17.4073333333333,78.4766333333333"
33,Annapurna Canteen - FEVER HOSPITAL ,Telangana,Hyderabad,FEVER HOSPITAL  Hyderabad Telangana,11:00,15:00,19:00,22:00, 100 ,040-21111111 ,17.39541667,78.5029,"https://www.google.com/maps/search/?api=1&query=17.3954166666667,78.5029"
34,Annapurna Canteen - GOLNAKA ,Telangana,Hyderabad,GOLNAKA  Hyderabad Telangana,11:00,15:00,19:00,22:00, 100 ,040-21111111 ,17.38656667,78.51296667,"https://www.google.com/maps/search/?api=1&query=17.3865666666667,78.5129666666667"
35,Annapurna Canteen - BAGH AMBERPET ,Telangana,Hyderabad,BAGH AMBERPET  Hyderabad Telangana,11:00,15:00,19:00,22:00, 100 ,040-21111111 ,17.39765,78.5123,"https://www.google.com/maps/search/?api=1&query=17.39765,78.5123"
36,Annapurna Canteen - MALKAJGIRI ,Telangana,Hyderabad,MALKAJGIRI  Hyderabad Telangana,11:00,15:00,19:00,22:00, 100 ,040-21111111 ,17.44976667,78.5366,"https://www.google.com/maps/search/?api=1&query=17.4497666666667,78.5366"
37,Annapurna Canteen - LALAPET ,Telangana,Hyderabad,LALAPET  Hyderabad Telangana,11:00,15:00,19:00,22:00, 100 ,040-21111111 ,17.42698333,78.53145,"https://www.google.com/maps/search/?api=1&query=17.4269833333333,78.53145"
38,Annapurna Canteen - CHILKALGUDA MAIN ROAD ,Telangana,Hyderabad,CHILKALGUDA MAIN ROAD  Hyderabad Telangana,11:00,15:00,19:00,22:00, 100 ,040-21111111 ,17.43205,78.50581667,"https://www.google.com/maps/search/?api=1&query=17.43205,78.5058166666667"
39,Annapurna Canteen - GANDHI HOSPITAL ,Telangana,Hyderabad,GANDHI HOSPITAL  Hyderabad Telangana,11:00,15:00,19:00,22:00, 100 ,040-21111111 ,17.4241,78.50206667,"https://www.google.com/maps/search/?api=1&query=17.4241,78.5020666666667"
40,Annapurna Canteen - MAHANKALI TEMPLE ,Telangana,Hyderabad,MAHANKALI TEMPLE  Hyderabad Telangana,11:00,15:00,19:00,22:00, 100 ,040-21111111 ,17.43625,78.49093333,"https://www.google.com/maps/search/?api=1&query=17.43625,78.4909333333333"
41,Annapurna Canteen - SECUNDERABAD ,Telangana,Hyderabad,SECUNDERABAD  Hyderabad Telangana,11:00,15:00,19:00,22:00, 100 ,040-21111111 ,17.44083333,78.49878333,"https://www.google.com/maps/search/?api=1&query=17.4408333333333,78.4987833333333"
42,Annapurna Canteen - MONDA MARKET ,Telangana,Hyderabad,MONDA MARKET  Hyderabad Telangana,11:00,15:00,19:00,22:00, 100 ,040-21111111 ,17.43398333,78.49678333,"https://www.google.com/maps/search/?api=1&query=17.4339833333333,78.4967833333333"
43,"Annapurna Canteen - OPP. UPPAL BUS STOP, SECUNDERABAD ",Telangana,Hyderabad,"OPP. UPPAL BUS STOP, SECUNDERABAD  Hyderabad Telangana",11:00,15:00,19:00,22:00, 100 ,040-21111111 ,17.43766667,78.50453333,"https://www.google.com/maps/search/?api=1&query=17.4376666666667,78.5045333333333"
44,Annapurna Canteen - LALADARWAZA ,Telangana,Hyderabad,LALADARWAZA  Hyderabad Telangana,11:00,15:00,19:00,22:00, 100 ,040-21111111 ,17.3507,78.47316667,"https://www.google.com/maps/search/?api=1&query=17.3507,78.4731666666667"
45,Annapurna Canteen - BAHADURPURA ,Telangana,Hyderabad,BAHADURPURA  Hyderabad Telangana,11:00,15:00,19:00,22:00, 100 ,040-21111111 ,17.35615,78.45476667,"https://www.google.com/maps/search/?api=1&query=17.35615,78.4547666666667"
46,Annapurna Canteen - CHINTALMET X ROAD ,Telangana,Hyderabad,CHINTALMET X ROAD  Hyderabad Telangana,11:00,15:00,19:00,22:00, 100 ,040-21111111 ,17.35191667,78.42161667,"https://www.google.com/maps/search/?api=1&query=17.3519166666667,78.4216166666667"
47,Annapurna Canteen - BALANAGAR X ROADS ,Telangana,Hyderabad,BALANAGAR X ROADS  Hyderabad Telangana,11:00,15:00,19:00,22:00, 100 ,040-21111111 ,17.47313333,78.42866667,"https://www.google.com/maps/search/?api=1&query=17.4731333333333,78.4286666666667"
48,"Annapurna Canteen - ENT HOSPITAL, KOTI ",Telangana,Hyderabad,"ENT HOSPITAL, KOTI  Hyderabad Telangana",11:00,15:00,19:00,22:00, 100 ,040-21111111 ,17.38361667,78.48168333,"https://www.google.com/maps/search/?api=1&query=17.3836166666667,78.4816833333333"
49,"Annapurna Canteen - BHOLAKPUR, MUSHEERABAD ",Telangana,Hyderabad,"BHOLAKPUR, MUSHEERABAD  Hyderabad Telangana",11:00,15:00,19:00,22:00, 100 ,040-21111111 ,17.41871667,78.49335,"https://www.google.com/maps/search/?api=1&query=17.4187166666667,78.49335"
50,"Annapurna Canteen - SRI KRISHNA NAGAR,YOUSUFGUDA ",Telangana,Hyderabad,"SRI KRISHNA NAGAR,YOUSUFGUDA  Hyderabad Telangana",11:00,15:00,19:00,22:00, 100 ,040-21111111 ,17.43145,78.426,"https://www.google.com/maps/search/?api=1&query=17.43145,78.426"
51,"Annapurna Canteen - YOUSUFGUDA,SRI RAM NAGAR ",Telangana,Hyderabad,"YOUSUFGUDA,SRI RAM NAGAR  Hyderabad Telangana",11:00,15:00,19:00,22:00, 100 ,040-21111111 ,17.45345,78.42246667,"https://www.google.com/maps/search/?api=1&query=17.45345,78.4224666666667"
52,Annapurna Canteen - MOOSAPET GOODS SHED ,Telangana,Hyderabad,MOOSAPET GOODS SHED  Hyderabad Telangana,11:00,15:00,19:00,22:00, 100 ,040-21111111 ,17.46586667,78.42266667,"https://www.google.com/maps/search/?api=1&query=17.4658666666667,78.4226666666667"
53,Annapurna Canteen - PRASHANTH NAGAR ,Telangana,Hyderabad,PRASHANTH NAGAR  Hyderabad Telangana,11:00,15:00,19:00,22:00, 100 ,040-21111111 ,17.47503333,78.42653333,"https://www.google.com/maps/search/?api=1&query=17.4750333333333,78.4265333333333"
54,Annapurna Canteen - ALLWYN COLONY ,Telangana,Hyderabad,ALLWYN COLONY  Hyderabad Telangana,11:00,15:00,19:00,22:00, 100 ,040-21111111 ,17.50725,78.4079,"https://www.google.com/maps/search/?api=1&query=17.50725,78.4079"
55,Annapurna Canteen - NEAR NGOS COLONY BUSSTOP ,Telangana,Hyderabad,NEAR NGOS COLONY BUSSTOP  Hyderabad Telangana,11:00,15:00,19:00,22:00, 100 ,040-21111111 ,17.32511667,78.5668,"https://www.google.com/maps/search/?api=1&query=17.3251166666667,78.5668"
56,Annapurna Canteen - CHINTAL ASIANTHEATRE ,Telangana,Hyderabad,CHINTAL ASIANTHEATRE  Hyderabad Telangana,11:00,15:00,19:00,22:00, 100 ,040-21111111 ,17.49208333,78.45158333,"https://www.google.com/maps/search/?api=1&query=17.4920833333333,78.4515833333333"
57,Annapurna Canteen - ALWAL ,Telangana,Hyderabad,ALWAL  Hyderabad Telangana,11:00,15:00,19:00,22:00, 100 ,040-21111111 ,17.50861667,78.50375,"https://www.google.com/maps/search/?api=1&query=17.5086166666667,78.50375"
58,Annapurna Canteen - NEREDMET ,Telangana,Hyderabad,NEREDMET  Hyderabad Telangana,11:00,15:00,19:00,22:00, 100 ,040-21111111 ,17.48228333,78.53781667,"https://www.google.com/maps/search/?api=1&query=17.4822833333333,78.5378166666667"
59,Annapurna Canteen - MUSHEERABAD ,Telangana,Hyderabad,MUSHEERABAD  Hyderabad Telangana,11:00,15:00,19:00,22:00, 100 ,040-21111111 ,17.4091,78.50868333,"https://www.google.com/maps/search/?api=1&query=17.4091,78.5086833333333"
60,Annapurna Canteen - SUNDARAIAH PARK ,Telangana,Hyderabad,SUNDARAIAH PARK  Hyderabad Telangana,11:00,15:00,19:00,22:00, 100 ,040-21111111 ,17.39825,78.49856667,"https://www.google.com/maps/search/?api=1&query=17.39825,78.4985666666667"
61,Annapurna Canteen - KANAJIGUDA ,Telangana,Hyderabad,KANAJIGUDA  Hyderabad Telangana,11:00,15:00,19:00,22:00, 100 ,040-21111111 ,17.48601667,78.4955,"https://www.google.com/maps/search/?api=1&query=17.4860166666667,78.4955"
62,Annapurna Canteen - CITY CENTRAL LIBRARY ,Telangana,Hyderabad,CITY CENTRAL LIBRARY  Hyderabad Telangana,11:00,15:00,19:00,22:00, 100 ,040-21111111 ,17.40426667,78.49183333,"https://www.google.com/maps/search/?api=1&query=17.4042666666667,78.4918333333333"
63,Annapurna Canteen - KHAIRATHABAD ,Telangana,Hyderabad,KHAIRATHABAD  Hyderabad Telangana,11:00,15:00,19:00,22:00, 100 ,040-21111111 ,17.41041667,78.46515,"https://www.google.com/maps/search/?api=1&query=17.4104166666667,78.46515"
64,Annapurna Canteen - NIMS HOSPITAL ,Telangana,Hyderabad,NIMS HOSPITAL  Hyderabad Telangana,11:00,15:00,19:00,22:00, 100 ,040-21111111 ,17.42276667,78.4544,"https://www.google.com/maps/search/?api=1&query=17.4227666666667,78.4544"
65,Annapurna Canteen - LAKDIKAPOOL DWARAKA HOTEL ,Telangana,Hyderabad,LAKDIKAPOOL DWARAKA HOTEL  Hyderabad Telangana,11:00,15:00,19:00,22:00, 100 ,040-21111111 ,17.40493333,78.46435,"https://www.google.com/maps/search/?api=1&query=17.4049333333333,78.46435"
66,Annapurna Canteen - BASAVA TARAKA CANCER HOSPITAL ,Telangana,Hyderabad,BASAVA TARAKA CANCER HOSPITAL  Hyderabad Telangana,11:00,15:00,19:00,22:00, 100 ,040-21111111 ,17.41695,78.42943333,"https://www.google.com/maps/search/?api=1&query=17.41695,78.4294333333333"
67,Annapurna Canteen - AMEERPET ,Telangana,Hyderabad,AMEERPET  Hyderabad Telangana,11:00,15:00,19:00,22:00, 100 ,040-21111111 ,17.43731667,78.44845,"https://www.google.com/maps/search/?api=1&query=17.4373166666667,78.44845"
68,Annapurna Canteen - ESI HOSPITAL ,Telangana,Hyderabad,ESI HOSPITAL  Hyderabad Telangana,11:00,15:00,19:00,22:00, 100 ,040-21111111 ,17.44828333,78.43755,"https://www.google.com/maps/search/?api=1&query=17.4482833333333,78.43755"
69,Annapurna Canteen - SANATH NAGAR BUS STAND ,Telangana,Hyderabad,SANATH NAGAR BUS STAND  Hyderabad Telangana,11:00,15:00,19:00,22:00, 100 ,040-21111111 ,17.45536667,78.44813333,"https://www.google.com/maps/search/?api=1&query=17.4553666666667,78.4481333333333"
70,Annapurna Canteen - ERRAGADDA ,Telangana,Hyderabad,ERRAGADDA  Hyderabad Telangana,11:00,15:00,19:00,22:00, 100 ,040-21111111 ,17.45151667,78.43605,"https://www.google.com/maps/search/?api=1&query=17.4515166666667,78.43605"
71,Annapurna Canteen - BORABANDA ,Telangana,Hyderabad,BORABANDA  Hyderabad Telangana,11:00,15:00,19:00,22:00, 100 ,040-21111111 ,17.4503,78.40716667,"https://www.google.com/maps/search/?api=1&query=17.4503,78.4071666666667"
72,"Annapurna Canteen - NBT NAGAR KAMAN, ROAD NO.12, BANJARA HILLS ",Telangana,Hyderabad,"NBT NAGAR KAMAN, ROAD NO.12, BANJARA HILLS  Hyderabad Telangana",11:00,15:00,19:00,22:00, 100 ,040-21111111 ,17.40958333,78.4369,"https://www.google.com/maps/search/?api=1&query=17.4095833333333,78.4369"
73,Annapurna Canteen - MADHAPUR ,Telangana,Hyderabad,MADHAPUR  Hyderabad Telangana,11:00,15:00,19:00,22:00, 100 ,040-21111111 ,17.44623333,78.38541667,"https://www.google.com/maps/search/?api=1&query=17.4462333333333,78.3854166666667"
74,Annapurna Canteen - MIYAPUR X ROAD ,Telangana,Hyderabad,MIYAPUR X ROAD  Hyderabad Telangana,11:00,15:00,19:00,22:00, 100 ,040-21111111 ,17.49681667,78.36385,"https://www.google.com/maps/search/?api=1&query=17.4968166666667,78.36385"
75,Annapurna Canteen - CHANDA NAGAR ,Telangana,Hyderabad,CHANDA NAGAR  Hyderabad Telangana,11:00,15:00,19:00,22:00, 100 ,040-21111111 ,17.49486667,78.32225,"https://www.google.com/maps/search/?api=1&query=17.4948666666667,78.32225"
76,Annapurna Canteen - BHEL ,Telangana,Hyderabad,BHEL  Hyderabad Telangana,11:00,15:00,19:00,22:00, 100 ,040-21111111 ,17.4964,78.31518333,"https://www.google.com/maps/search/?api=1&query=17.4964,78.3151833333333"
77,Annapurna Canteen - PATANCHERU ,Telangana,Hyderabad,PATANCHERU  Hyderabad Telangana,11:00,15:00,19:00,22:00, 100 ,040-21111111 ,17.5293,78.26398333,"https://www.google.com/maps/search/?api=1&query=17.5293,78.2639833333333"
78,Annapurna Canteen - MOOSAPET ,Telangana,Hyderabad,MOOSAPET  Hyderabad Telangana,11:00,15:00,19:00,22:00, 100 ,040-21111111 ,17.46941667,78.42053333,"https://www.google.com/maps/search/?api=1&query=17.4694166666667,78.4205333333333"
79,Annapurna Canteen - KUKATPALLY ,Telangana,Hyderabad,KUKATPALLY  Hyderabad Telangana,11:00,15:00,19:00,22:00, 100 ,040-21111111 ,17.49441667,78.4012,"https://www.google.com/maps/search/?api=1&query=17.4944166666667,78.4012"
80,Annapurna Canteen - JAGATGIRIGUTTA ,Telangana,Hyderabad,JAGATGIRIGUTTA  Hyderabad Telangana,11:00,15:00,19:00,22:00, 100 ,040-21111111 ,17.50296667,78.42616667,"https://www.google.com/maps/search/?api=1&query=17.5029666666667,78.4261666666667"
81,Annapurna Canteen - SURARAM ,Telangana,Hyderabad,SURARAM  Hyderabad Telangana,11:00,15:00,19:00,22:00, 100 ,040-21111111 ,17.54055,78.43396667,"https://www.google.com/maps/search/?api=1&query=17.54055,78.4339666666667"
82,Annapurna Canteen - SHAPUR ,Telangana,Hyderabad,SHAPUR  Hyderabad Telangana,11:00,15:00,19:00,22:00, 100 ,040-21111111 ,17.51236667,78.44743333,"https://www.google.com/maps/search/?api=1&query=17.5123666666667,78.4474333333333"
83,"Annapurna Canteen - PARVATH NAGAR,ALLAPUR DIVISION ",Telangana,Hyderabad,"PARVATH NAGAR,ALLAPUR DIVISION  Hyderabad Telangana",11:00,15:00,19:00,22:00, 100 ,040-21111111 ,17.45671667,78.398,"https://www.google.com/maps/search/?api=1&query=17.4567166666667,78.398"
84,Annapurna Canteen - KPHB 4TH PHASE UNDER FLY OVER ,Telangana,Hyderabad,KPHB 4TH PHASE UNDER FLY OVER  Hyderabad Telangana,11:00,15:00,19:00,22:00, 100 ,040-21111111 ,17.471,78.38685,"https://www.google.com/maps/search/?api=1&query=17.471,78.38685"
85,"Annapurna Canteen - MALLA REDDY HOSPITAL, OPP ",Telangana,Hyderabad,"MALLA REDDY HOSPITAL, OPP  Hyderabad Telangana",11:00,15:00,19:00,22:00, 100 ,040-21111111 ,17.54411667,78.4339,"https://www.google.com/maps/search/?api=1&query=17.5441166666667,78.4339"
86,Annapurna Canteen - ANJAYA NAGAR LABOUR ADDA ,Telangana,Hyderabad,ANJAYA NAGAR LABOUR ADDA  Hyderabad Telangana,11:00,15:00,19:00,22:00, 100 ,040-21111111 ,17.45008333,78.36371667,"https://www.google.com/maps/search/?api=1&query=17.4500833333333,78.3637166666667"
87,"Annapurna Canteen - HASHMATHPET, AMBEDKAR STATUE ",Telangana,Hyderabad,"HASHMATHPET, AMBEDKAR STATUE  Hyderabad Telangana",11:00,15:00,19:00,22:00, 100 ,040-21111111 ,17.47551667,78.48573333,"https://www.google.com/maps/search/?api=1&query=17.4755166666667,78.4857333333333"
88,Annapurna Canteen - TARA NAGAR VEGETABEL MARKET ,Telangana,Hyderabad,TARA NAGAR VEGETABEL MARKET  Hyderabad Telangana,11:00,15:00,19:00,22:00, 100 ,040-21111111 ,17.49046667,78.31763333,"https://www.google.com/maps/search/?api=1&query=17.4904666666667,78.3176333333333"
89,Annapurna Canteen - P&T COLONY CHOWRASTA ,Telangana,Hyderabad,P&T COLONY CHOWRASTA  Hyderabad Telangana,11:00,15:00,19:00,22:00, 100 ,040-21111111 ,17.36398333,78.5264,"https://www.google.com/maps/search/?api=1&query=17.3639833333333,78.5264"
90,Annapurna Canteen - HAFEEZPET MIYAPUR AUTOSTAND ,Telangana,Hyderabad,HAFEEZPET MIYAPUR AUTOSTAND  Hyderabad Telangana,11:00,15:00,19:00,22:00, 100 ,040-21111111 ,17.49675,78.36068333,"https://www.google.com/maps/search/?api=1&query=17.49675,78.3606833333333"
91,Annapurna Canteen - GOLKONDA FORT ,Telangana,Hyderabad,GOLKONDA FORT  Hyderabad Telangana,11:00,15:00,19:00,22:00, 100 ,040-21111111 ,17.38498333,78.40301667,"https://www.google.com/maps/search/?api=1&query=17.3849833333333,78.4030166666667"
92,Annapurna Canteen - EAST ANAND BAGH ,Telangana,Hyderabad,EAST ANAND BAGH  Hyderabad Telangana,11:00,15:00,19:00,22:00, 100 ,040-21111111 ,17.45763333,78.54396667,"https://www.google.com/maps/search/?api=1&query=17.4576333333333,78.5439666666667"
93,Annapurna Canteen - VINAYAK NAGAR ,Telangana,Hyderabad,VINAYAK NAGAR  Hyderabad Telangana,11:00,15:00,19:00,22:00, 100 ,040-21111111 ,17.46853333,78.5446,"https://www.google.com/maps/search/?api=1&query=17.4685333333333,78.5446"
94,Annapurna Canteen - TOLECHOWKI X-ROADS ,Telangana,Hyderabad,TOLECHOWKI X-ROADS  Hyderabad Telangana,11:00,15:00,19:00,22:00, 100 ,040-21111111 ,17.39826667,78.41708333,"https://www.google.com/maps/search/?api=1&query=17.3982666666667,78.4170833333333"
95,Annapurna Canteen - OLD MALAKPET ,Telangana,Hyderabad,OLD MALAKPET  Hyderabad Telangana,11:00,15:00,19:00,22:00, 100 ,040-21111111 ,17.37863333,78.50053333,"https://www.google.com/maps/search/?api=1&query=17.3786333333333,78.5005333333333"
96,Annapurna Canteen - MOOSURAMBAGH X-ROAD ,Telangana,Hyderabad,MOOSURAMBAGH X-ROAD  Hyderabad Telangana,11:00,15:00,19:00,22:00, 100 ,040-21111111 ,17.36905,78.52106667,"https://www.google.com/maps/search/?api=1&query=17.36905,78.5210666666667"
97,Annapurna Canteen - T.S. ASSEMBLY ,Telangana,Hyderabad,T.S. ASSEMBLY  Hyderabad Telangana,11:00,15:00,19:00,22:00, 100 ,040-21111111 ,17.39925,78.47055,"https://www.google.com/maps/search/?api=1&query=17.39925,78.47055"
98,Annapurna Canteen - CHNADRAYANGUTTA X-ROADS ,Telangana,Hyderabad,CHNADRAYANGUTTA X-ROADS  Hyderabad Telangana,11:00,15:00,19:00,22:00, 100 ,040-21111111 ,17.32663333,78.47691667,"https://www.google.com/maps/search/?api=1&query=17.3266333333333,78.4769166666667"
99,Annapurna Canteen - KINGKOTI HOSPITAL ,Telangana,Hyderabad,KINGKOTI HOSPITAL  Hyderabad Telangana,11:00,15:00,19:00,22:00, 100 ,040-21111111 ,17.39316667,78.48085,"https://www.google.com/maps/search/?api=1&query=17.3931666666667,78.48085"
100,Annapurna Canteen - KPHB COLONY BUSTOP ,Telangana,Hyderabad,KPHB COLONY BUSTOP  Hyderabad Telangana,11:00,15:00,19:00,22:00, 100 ,040-21111111 ,17.47115,78.38736667,"https://www.google.com/maps/search/?api=1&query=17.47115,78.3873666666667"
101,Annapurna Canteen - RAKSHAPURAM ,Telangana,Hyderabad,RAKSHAPURAM  Hyderabad Telangana,11:00,15:00,19:00,22:00, 100 ,040-21111111 ,17.33856667,78.49535,"https://www.google.com/maps/search/?api=1&query=17.3385666666667,78.49535"
102,Annapurna Canteen - DHARNA CHOWK ,Telangana,Hyderabad,DHARNA CHOWK  Hyderabad Telangana,11:00,15:00,19:00,22:00, 100 ,040-21111111 ,17.41305,78.4857,"https://www.google.com/maps/search/?api=1&query=17.41305,78.4857"
103,Annapurna Canteen - KISHANBAGH ,Telangana,Hyderabad,KISHANBAGH  Hyderabad Telangana,11:00,15:00,19:00,22:00, 100 ,040-21111111 ,17.3401,78.4963,"https://www.google.com/maps/search/?api=1&query=17.3401,78.4963"
104,Annapurna Canteen - ESI NACHARAM ,Telangana,Hyderabad,ESI NACHARAM  Hyderabad Telangana,11:00,15:00,19:00,22:00, 100 ,040-21111111 ,17.43161667,78.55313333,"https://www.google.com/maps/search/?api=1&query=17.4316166666667,78.5531333333333"
105,Annapurna Canteen - IS SADAN ,Telangana,Hyderabad,IS SADAN  Hyderabad Telangana,11:00,15:00,19:00,22:00, 100 ,040-21111111 ,17.35825,78.51571667,"https://www.google.com/maps/search/?api=1&query=17.35825,78.5157166666667"
106,Annapurna Canteen - VATTEPALLY BUSTAND ,Telangana,Hyderabad,VATTEPALLY BUSTAND  Hyderabad Telangana,11:00,15:00,19:00,22:00, 100 ,040-21111111 ,17.32856667,78.457,"https://www.google.com/maps/search/?api=1&query=17.3285666666667,78.457"
107,"Annapurna Canteen - GANDHI STATUE, SAROORNAGAR ",Telangana,Hyderabad,"GANDHI STATUE, SAROORNAGAR  Hyderabad Telangana",11:00,15:00,19:00,22:00, 100 ,040-21111111 ,17.35436667,78.53221667,"https://www.google.com/maps/search/?api=1&query=17.3543666666667,78.5322166666667"
108,"Annapurna Canteen - NEAR RYTHU BAZAR, VANASTHALIPURAM ",Telangana,Hyderabad,"NEAR RYTHU BAZAR, VANASTHALIPURAM  Hyderabad Telangana",11:00,15:00,19:00,22:00, 100 ,040-21111111 ,17.33068333,78.57496667,"https://www.google.com/maps/search/?api=1&query=17.3306833333333,78.5749666666667"
109,"Annapurna Canteen - NETAJI NAGAR X-ROAD, AYODYA NAGAR ",Telangana,Hyderabad,"NETAJI NAGAR X-ROAD, AYODYA NAGAR  Hyderabad Telangana",11:00,15:00,19:00,22:00, 100 ,040-21111111 ,17.48501667,78.55563333,"https://www.google.com/maps/search/?api=1&query=17.4850166666667,78.5556333333333"
110,Annapurna Canteen - SUCHITRA 'X' ROADS ,Telangana,Hyderabad,SUCHITRA 'X' ROADS  Hyderabad Telangana,11:00,15:00,19:00,22:00, 100 ,040-21111111 ,17.49903333,78.4765,"https://www.google.com/maps/search/?api=1&query=17.4990333333333,78.4765"
111,"Annapurna Canteen - KHAJAGUDA, ANJANEYA SWAMY TEMPLE ",Telangana,Hyderabad,"KHAJAGUDA, ANJANEYA SWAMY TEMPLE  Hyderabad Telangana",11:00,15:00,19:00,22:00, 100 ,040-21111111 ,17.4165,78.35465,"https://www.google.com/maps/search/?api=1&query=17.4165,78.35465"
112,"Annapurna Canteen - OPP. SRI NILAYAM, SAGAR ROAD ",Telangana,Hyderabad,"OPP. SRI NILAYAM, SAGAR ROAD  Hyderabad Telangana",11:00,15:00,19:00,22:00, 100 ,040-21111111 ,17.33968333,78.54875,"https://www.google.com/maps/search/?api=1&query=17.3396833333333,78.54875"
113,"Annapurna Canteen - OPP. SITARA, GUNTI JANGAIAH COLONY ",Telangana,Hyderabad,"OPP. SITARA, GUNTI JANGAIAH COLONY  Hyderabad Telangana",11:00,15:00,19:00,22:00, 100 ,040-21111111 ,17.3439,78.55411667,"https://www.google.com/maps/search/?api=1&query=17.3439,78.5541166666667"
114,"Annapurna Canteen - NTR NAGAR,RYTHU BAZAR ",Telangana,Hyderabad,"NTR NAGAR,RYTHU BAZAR  Hyderabad Telangana",11:00,15:00,19:00,22:00, 100 ,040-21111111 ,17.3556,78.54595,"https://www.google.com/maps/search/?api=1&query=17.3556,78.54595"
115,"Annapurna Canteen - SHOBANA COLONY,VEGETABLE MARKET ",Telangana,Hyderabad,"SHOBANA COLONY,VEGETABLE MARKET  Hyderabad Telangana",11:00,15:00,19:00,22:00, 100 ,040-21111111 ,17.46191667,78.45333333,"https://www.google.com/maps/search/?api=1&query=17.4619166666667,78.4533333333333"
116,Annapurna Canteen - CHENOY PLAY GROUND ,Telangana,Hyderabad,CHENOY PLAY GROUND  Hyderabad Telangana,11:00,15:00,19:00,22:00, 100 ,040-21111111 ,17.4483,78.50826667,"https://www.google.com/maps/search/?api=1&query=17.4483,78.5082666666667"
117,Annapurna Canteen - ADDAGUTTA ,Telangana,Hyderabad,ADDAGUTTA  Hyderabad Telangana,11:00,15:00,19:00,22:00, 100 ,040-21111111 ,17.44573333,78.51448333,"https://www.google.com/maps/search/?api=1&query=17.4457333333333,78.5144833333333"
118,Annapurna Canteen - MANIKESWAR NAGAR  ,Telangana,Hyderabad,MANIKESWAR NAGAR   Hyderabad Telangana,11:00,15:00,19:00,22:00, 100 ,040-21111111 ,17.42123333,78.52386667,"https://www.google.com/maps/search/?api=1&query=17.4212333333333,78.5238666666667"
119,Annapurna Canteen - BEGUMPET ,Telangana,Hyderabad,BEGUMPET  Hyderabad Telangana,11:00,15:00,19:00,22:00, 100 ,040-21111111 ,17.4394,78.45773333,"https://www.google.com/maps/search/?api=1&query=17.4394,78.4577333333333"
120,Annapurna Canteen - WARASIGUDA ,Telangana,Hyderabad,WARASIGUDA  Hyderabad Telangana,11:00,15:00,19:00,22:00, 100 ,040-21111111 ,17.41943333,78.51836667,"https://www.google.com/maps/search/?api=1&query=17.4194333333333,78.5183666666667"
121,Annapurna Canteen - ALICAFE-AMBERPET ,Telangana,Hyderabad,ALICAFE-AMBERPET  Hyderabad Telangana,11:00,15:00,19:00,22:00, 100 ,040-21111111 ,17.38166667,78.5203,"https://www.google.com/maps/search/?api=1&query=17.3816666666667,78.5203"
122,Annapurna Canteen - CHAMPAPET ,Telangana,Hyderabad,CHAMPAPET  Hyderabad Telangana,11:00,15:00,19:00,22:00, 100 ,040-21111111 ,17.34876667,78.51475,"https://www.google.com/maps/search/?api=1&query=17.3487666666667,78.51475"
123,Annapurna Canteen - CHILUKA NAGAR ,Telangana,Hyderabad,CHILUKA NAGAR  Hyderabad Telangana,11:00,15:00,19:00,22:00, 100 ,040-21111111 ,17.41965,78.56496667,"https://www.google.com/maps/search/?api=1&query=17.41965,78.5649666666667"
124,Annapurna Canteen - CITY CIVIL COURT ,Telangana,Hyderabad,CITY CIVIL COURT  Hyderabad Telangana,11:00,15:00,19:00,22:00, 100 ,040-21111111 ,17.36826667,78.47885,"https://www.google.com/maps/search/?api=1&query=17.3682666666667,78.47885"
125,Annapurna Canteen - FILM NAGAR BASTHI ,Telangana,Hyderabad,FILM NAGAR BASTHI  Hyderabad Telangana,11:00,15:00,19:00,22:00, 100 ,040-21111111 ,17.41431667,78.41166667,"https://www.google.com/maps/search/?api=1&query=17.4143166666667,78.4116666666667"
126,Annapurna Canteen - GACHIBOWLI FLY OVER ,Telangana,Hyderabad,GACHIBOWLI FLY OVER  Hyderabad Telangana,11:00,15:00,19:00,22:00, 100 ,040-21111111 ,17.43821667,78.3648,"https://www.google.com/maps/search/?api=1&query=17.4382166666667,78.3648"
127,Annapurna Canteen - GANDHI BHAVAN ,Telangana,Hyderabad,GANDHI BHAVAN  Hyderabad Telangana,11:00,15:00,19:00,22:00, 100 ,040-21111111 ,17.38755,78.47188333,"https://www.google.com/maps/search/?api=1&query=17.38755,78.4718833333333"
128,Annapurna Canteen - GODE KI KHABER ,Telangana,Hyderabad,GODE KI KHABER  Hyderabad Telangana,11:00,15:00,19:00,22:00, 100 ,040-21111111 ,17.37778333,78.46236667,"https://www.google.com/maps/search/?api=1&query=17.3777833333333,78.4623666666667"
129,Annapurna Canteen - HASSAN NAGAR ,Telangana,Hyderabad,HASSAN NAGAR  Hyderabad Telangana,11:00,15:00,19:00,22:00, 100 ,040-21111111 ,17.33978333,78.43406667,"https://www.google.com/maps/search/?api=1&query=17.3397833333333,78.4340666666667"
130,Annapurna Canteen - HAYAT NAGAR BUS STAND ,Telangana,Hyderabad,HAYAT NAGAR BUS STAND  Hyderabad Telangana,11:00,15:00,19:00,22:00, 100 ,040-21111111 ,17.3273,78.60428333,"https://www.google.com/maps/search/?api=1&query=17.3273,78.6042833333333"
131,Annapurna Canteen - HYDERGUDA X ROADS ,Telangana,Hyderabad,HYDERGUDA X ROADS  Hyderabad Telangana,11:00,15:00,19:00,22:00, 100 ,040-21111111 ,17.36526667,78.42811667,"https://www.google.com/maps/search/?api=1&query=17.3652666666667,78.4281166666667"
132,Annapurna Canteen - KACHEGUDA ,Telangana,Hyderabad,KACHEGUDA  Hyderabad Telangana,11:00,15:00,19:00,22:00, 100 ,040-21111111 ,17.38946667,78.49331667,"https://www.google.com/maps/search/?api=1&query=17.3894666666667,78.4933166666667"
133,Annapurna Canteen - KANDIKAL GATE ,Telangana,Hyderabad,KANDIKAL GATE  Hyderabad Telangana,11:00,15:00,19:00,22:00, 100 ,040-21111111 ,17.33348333,78.48105,"https://www.google.com/maps/search/?api=1&query=17.3334833333333,78.48105"
134,Annapurna Canteen - MANGALHAT EXCISE POLICE STATION ,Telangana,Hyderabad,MANGALHAT EXCISE POLICE STATION  Hyderabad Telangana,11:00,15:00,19:00,22:00, 100 ,040-21111111 ,17.3763,78.45501667,"https://www.google.com/maps/search/?api=1&query=17.3763,78.4550166666667"
135,Annapurna Canteen - MATERNITY HOSPITAL KOTI ,Telangana,Hyderabad,MATERNITY HOSPITAL KOTI  Hyderabad Telangana,11:00,15:00,19:00,22:00, 100 ,040-21111111 ,17.38588333,78.48711667,"https://www.google.com/maps/search/?api=1&query=17.3858833333333,78.4871166666667"
136,Annapurna Canteen - MIDHANI  Jn. ,Telangana,Hyderabad,MIDHANI  Jn.  Hyderabad Telangana,11:00,15:00,19:00,22:00, 100 ,040-21111111 ,17.34053333,78.5022,"https://www.google.com/maps/search/?api=1&query=17.3405333333333,78.5022"
137,Annapurna Canteen - MOTI NAGAR ,Telangana,Hyderabad,MOTI NAGAR  Hyderabad Telangana,11:00,15:00,19:00,22:00, 100 ,040-21111111 ,17.45431667,78.42258333,"https://www.google.com/maps/search/?api=1&query=17.4543166666667,78.4225833333333"
138,Annapurna Canteen - NALGONDA X ROADS ,Telangana,Hyderabad,NALGONDA X ROADS  Hyderabad Telangana,11:00,15:00,19:00,22:00, 100 ,040-21111111 ,17.37503333,78.49835,"https://www.google.com/maps/search/?api=1&query=17.3750333333333,78.49835"
139,Annapurna Canteen - QULI QUTUBSHAHI POLYTECHNIC COLLEGE ,Telangana,Hyderabad,QULI QUTUBSHAHI POLYTECHNIC COLLEGE  Hyderabad Telangana,11:00,15:00,19:00,22:00, 100 ,040-21111111 ,17.3525,78.45746667,"https://www.google.com/maps/search/?api=1&query=17.3525,78.4574666666667"
140,Annapurna Canteen - SANKESHWAR BAZAR ,Telangana,Hyderabad,SANKESHWAR BAZAR  Hyderabad Telangana,11:00,15:00,19:00,22:00, 100 ,040-21111111 ,17.35943333,78.5242,"https://www.google.com/maps/search/?api=1&query=17.3594333333333,78.5242"
141,Annapurna Canteen - TEEGALKUNTA ,Telangana,Hyderabad,TEEGALKUNTA  Hyderabad Telangana,11:00,15:00,19:00,22:00, 100 ,040-21111111 ,17.3357,78.4573,"https://www.google.com/maps/search/?api=1&query=17.3357,78.4573"
142,Annapurna Canteen - VENKAT REDDY NAGAR ,Telangana,Hyderabad,VENKAT REDDY NAGAR  Hyderabad Telangana,11:00,15:00,19:00,22:00, 100 ,040-21111111 ,17.38625,78.52801667,"https://www.google.com/maps/search/?api=1&query=17.38625,78.5280166666667"
143,Annapurna Canteen - VIJAY NAGAR COLONY ,Telangana,Hyderabad,VIJAY NAGAR COLONY  Hyderabad Telangana,11:00,15:00,19:00,22:00, 100 ,040-21111111 ,17.3942,78.45011667,"https://www.google.com/maps/search/?api=1&query=17.3942,78.4501166666667"
144,Annapurna Canteen - YOUSUFGUDA WARD OFFICE ,Telangana,Hyderabad,YOUSUFGUDA WARD OFFICE  Hyderabad Telangana,11:00,15:00,19:00,22:00, 100 ,040-21111111 ,17.43636667,78.43501667,"https://www.google.com/maps/search/?api=1&query=17.4363666666667,78.4350166666667"
145,Annapurna Canteen - DURRU SHEHVAR HOSPITAL ,Telangana,Hyderabad,DURRU SHEHVAR HOSPITAL  Hyderabad Telangana,11:00,15:00,19:00,22:00, 100 ,040-21111111 ,17.36755,78.48326667,"https://www.google.com/maps/search/?api=1&query=17.36755,78.4832666666667"
